NORAD_CAT_ID,OBJECT_NAME,OBJECT_TYPE,EPOCH,MEAN_MOTION,ECCENTRICITY,INCLINATION,RA_OF_ASC_NODE,ARG_OF_PERICENTER,MEAN_ANOMALY,BSTAR,MEAN_MOTION_DOT,MEAN_MOTION_DDOT,TLE_LINE0,TLE_LINE1,TLE_LINE2,SEMIMAJOR_AXIS,PERIOD,APOGEE,PERIGEE,DECAYED
50174.0,STARLINK-3292,PAYLOAD,2022-03-19 22:00:01,15.1551522,0.0002029,53.2174,281.9877,32.3382,32.1627,-0.037177,-0.00667508,0.0,0 STARLINK-3292,1 50174U 21125U   22078.91668981 -.00667508  00000-0 -37177-1 0  9995,2 50174  53.2174 281.9877 0002029  32.3382  32.1627 15.15515220  3659,6897.552,95.017,520.816,518.0169999999998,0.0
50174.0,STARLINK-3292,PAYLOAD,2022-03-20 14:00:01,15.14579864,0.00021,53.2175,278.966,31.298,71.2409,-0.037902,-0.0066296,0.0,0 STARLINK-3292,1 50174U 21125U   22079.58334491 -.00662960  00000-0 -37902-1 0  9998,2 50174  53.2175 278.9660 0002100  31.2980  71.2409 15.14579864 17209,6900.391,95.076,523.705,520.807,0.0
50174.0,STARLINK-3292,PAYLOAD,2022-03-20 22:00:01,15.14115117,0.0002139,53.2175,277.4595,29.7271,91.0819,-0.038634,-0.00666675,0.0,0 STARLINK-3292,1 50174U 21125U   22079.91668981 -.00666675  00000-0 -38634-1 0  9999,2 50174  53.2175 277.4595 0002139  29.7271  91.0819 15.14115117  3653,6901.803000000001,95.105,525.145,522.192,0.0
50174.0,STARLINK-3292,PAYLOAD,2022-03-21 14:00:01,15.13180368,0.000178,53.2176,274.4444,46.5579,108.9252,-0.039461,-0.00663389,0.0,0 STARLINK-3292,1 50174U 21125U   22080.58334491 -.00663389  00000-0 -39461-1 0  9998,2 50174  53.2176 274.4444 0001780  46.5579 108.9252 15.13180368  3639,6904.645,95.164,527.739,525.281,0.0
50174.0,STARLINK-3292,PAYLOAD,2022-03-21 22:00:00,15.12713125,0.0001951,53.2175,272.9411,40.8129,131.1964,-0.039947,-0.00662845,0.0,0 STARLINK-3292,1 50174U 21125U   22080.91667824 -.00662845  00000-0 -39947-1 0  9999,2 50174  53.2175 272.9411 0001951  40.8129 131.1964 15.12713125 17403,6906.066999999999,95.193,529.279,526.585,0.0
50174.0,STARLINK-3292,PAYLOAD,2022-03-22 14:00:01,15.11780658,0.0001805,53.2177,269.9326,46.2719,157.1098,-0.041039,-0.00663353,0.0,0 STARLINK-3292,1 50174U 21125U   22081.58334491 -.00663353  00000-0 -41039-1 0  9994,2 50174  53.2177 269.9326 0001805  46.2719 157.1098 15.11780658  3639,6908.906999999997,95.252,532.019,529.524,0.0
50174.0,STARLINK-3292,PAYLOAD,2022-03-22 22:00:01,15.11312417,0.0001715,53.2175,268.4322,51.9555,166.3338,-0.041415,-0.00660893,0.0,0 STARLINK-3292,1 50174U 21125U   22081.91668981 -.00660893  00000-0 -41415-1 0  9999,2 50174  53.2175 268.4322 0001715  51.9555 166.3338 15.11312417  3642,6910.334,95.281,533.384,531.013,0.0
50174.0,STARLINK-3292,PAYLOAD,2022-03-23 08:00:01,15.10729703,0.0001579,53.2175,266.5545,45.0566,280.9384,-0.042119,-0.00661274,0.0,0 STARLINK-3292,1 50174U 21125U   22082.33334491 -.00661274  00000-0 -42119-1 0  9998,2 50174  53.2175 266.5545 0001579  45.0566 280.9384 15.10729703 17617,6912.11,95.318,535.067,532.884,0.0
50174.0,STARLINK-3292,PAYLOAD,2022-03-23 14:00:01,15.10380982,0.0001717,53.2177,265.4304,49.6943,196.5402,-0.042672,-0.00663373,0.0,0 STARLINK-3292,1 50174U 21125U   22082.58334491 -.00663373  00000-0 -42672-1 0  9991,2 50174  53.2177 265.4304 0001717  49.6943 196.5402 15.10380982  3657,6913.174,95.34,536.226,533.852,0.0
50174.0,STARLINK-3292,PAYLOAD,2022-03-23 22:00:00,15.09912225,0.0001718,53.2176,263.9333,49.3051,210.0923,-0.042981,-0.00659794,0.0,0 STARLINK-3292,1 50174U 21125U   22082.91667824 -.00659794  00000-0 -42981-1 0  9992,2 50174  53.2176 263.9333 0001718  49.3051 210.0923 15.09912225  3647,6914.605,95.37,537.658,535.2819999999998,0.0
50174.0,STARLINK-3292,PAYLOAD,2022-03-24 14:00:01,15.0886809,0.0001730999999999,53.2177,260.9372,49.9924,234.0624,-0.0031521,-0.00050144,0.0,0 STARLINK-3292,1 50174U 21125U   22083.58334491 -.00050144  00000-0 -31521-2 0  9990,2 50174  53.2177 260.9372 0001731  49.9924 234.0624 15.08868090  3618,6917.795,95.436,540.857,538.462,0.0
50174.0,STARLINK-3292,PAYLOAD,2022-03-24 22:00:00,15.08836734,0.0001613,53.2177,259.4418,55.3378,240.3231,0.0001008,1.316e-05,0.0,0 STARLINK-3292,1 50174U 21125U   22083.91667824  .00001316  00000-0  10080-3 0  9999,2 50174  53.2177 259.4418 0001613  55.3378 240.3231 15.08836734  3631,6917.89,95.438,540.871,538.64,0.0
50174.0,STARLINK-3292,PAYLOAD,2022-03-25 00:00:02,15.08837632,0.0001529,53.2173,259.0678,53.9803,334.6413,-1.2214e-05,-4.82e-06,0.0,0 STARLINK-3292,1 50174U 21125U   22084.00002315 -.00000482  00000-0 -12214-4 0  9995,2 50174  53.2173 259.0678 0001529  53.9803 334.6413 15.08837632 17872,6917.888000000001,95.438,540.81,538.695,0.0
50174.0,STARLINK-3292,PAYLOAD,2022-03-25 14:00:01,15.08856797,0.0001647,53.2182,256.4416,54.9627,263.8872,-0.001256,-0.00020231,0.0,0 STARLINK-3292,1 50174U 21125U   22084.58334491 -.00020231  00000-0 -12560-2 0  9997,2 50174  53.2182 256.4416 0001647  54.9627 263.8872 15.08856797  3622,6917.829000000002,95.436,540.8330000000002,538.555,0.0
50174.0,STARLINK-3292,PAYLOAD,2022-03-25 22:00:01,15.08824299,0.0001796,53.2179,254.9465,47.9545,282.5689,0.0028773,0.00045782,0.0,0 STARLINK-3292,1 50174U 21125U   22084.91668981  .00045782  00000-0  28773-2 0  9997,2 50174  53.2179 254.9465 0001796  47.9545 282.5689 15.08824299  3672,6917.928000000001,95.439,541.036,538.5509999999998,0.0
50174.0,STARLINK-3292,PAYLOAD,2022-03-26 06:00:00,15.08843088,0.0001658,53.2178,253.4486,52.9278,289.1441,0.0013564999999999,0.00021368,0.0,0 STARLINK-3292,1 50174U 21125U   22085.25001157  .00021368  00000-0  13565-2 0  9998,2 50174  53.2178 253.4486 0001658  52.9278 289.1441 15.08843088 18058,6917.871,95.437,540.883,538.589,0.0
50174.0,STARLINK-3292,PAYLOAD,2022-03-26 14:00:01,15.08907059,0.0001679,53.2178,251.9561,51.5663,302.103,-0.0038661,-0.00061406,0.0,0 STARLINK-3292,1 50174U 21125U   22085.58334491 -.00061406  00000-0 -38661-2 0  9997,2 50174  53.2178 251.9561 0001679  51.5663 302.1030 15.08907059  3605,6917.675,95.433,540.702,538.379,0.0
50174.0,STARLINK-3292,PAYLOAD,2022-03-26 22:00:00,15.08847951,0.0001799,53.2177,250.4577,46.1282,319.1819,0.00035715,5.402e-05,0.0,0 STARLINK-3292,1 50174U 21125U   22085.91667824  .00005402  00000-0  35715-3 0  9993,2 50174  53.2177 250.4577 0001799  46.1282 319.1819 15.08847951  3624,6917.856,95.437,540.966,538.477,0.0
50174.0,STARLINK-3292,PAYLOAD,2022-03-27 06:00:00,15.0882914,0.0001613,53.2177,248.9594,49.8585,327.066,0.0019129,0.00030278,0.0,0 STARLINK-3292,1 50174U 21125U   22086.25001157  .00030278  00000-0  19129-2 0  9991,2 50174  53.2177 248.9594 0001613  49.8585 327.0660 15.08829140 18219,6917.9140000000025,95.438,540.894,538.663,0.0
50174.0,STARLINK-3292,PAYLOAD,2022-03-27 14:00:01,15.08885544,0.0001686,53.2179,247.4637,49.04600000000001,339.4726,-0.0041252,-0.00065426,0.0,0 STARLINK-3292,1 50174U 21125U   22086.58334491 -.00065426  00000-0 -41252-2 0  9994,2 50174  53.2179 247.4637 0001686  49.0460 339.4726 15.08885544  3637,6917.741,95.435,540.773,538.44,0.0
50174.0,STARLINK-3292,PAYLOAD,2022-03-27 22:00:01,15.08816137,0.0001774,53.2178,245.9685,41.9983,358.2099,0.00294,0.00046782,0.0,0 STARLINK-3292,1 50174U 21125U   22086.91668981  .00046782  00000-0  29400-2 0  9998,2 50174  53.2178 245.9685 0001774  41.9983 358.2099 15.08816137 18316,6917.953,95.439,541.0459999999998,538.591,0.0
50174.0,STARLINK-3292,PAYLOAD,2022-03-28 14:00:01,15.08859097,0.0001779,53.2183,242.9745,48.4226,14.9908,-0.0020003,-0.00031999,0.0,0 STARLINK-3292,1 50174U 21125U   22087.58335648 -.00031999  00000-0 -20003-2 0  9999,2 50174  53.2183 242.9745 0001779  48.4226  14.9908 15.08859097  3628,6917.821999999999,95.436,540.918,538.456,0.0
50174.0,STARLINK-3292,PAYLOAD,2022-03-28 22:00:00,15.08839986,0.0001889,53.2181,241.4792,42.4752,32.4771,0.00015498,2.179e-05,0.0,0 STARLINK-3292,1 50174U 21125U   22087.91667824  .00002179  00000-0  15498-3 0  9999,2 50174  53.2181 241.4792 0001889  42.4752  32.4771 15.08839986 18468,6917.88,95.438,541.052,538.439,0.0
50174.0,STARLINK-3292,PAYLOAD,2022-03-29 14:00:01,15.08860458,0.0001721999999999,53.2187,238.4856,44.6983,53.4291,-0.0041781,-0.00066209,0.0,0 STARLINK-3292,1 50174U 21125U   22088.58334491 -.00066209  00000-0 -41781-2 0  9993,2 50174  53.2187 238.4856 0001722  44.6983  53.4291 15.08860458  3582,6917.818,95.436,540.874,538.492,0.0
50174.0,STARLINK-3292,PAYLOAD,2022-03-29 22:00:00,15.08810427,0.0001793,53.2184,236.99,37.9646,71.7576,0.0025606,0.00040667,0.0,0 STARLINK-3292,1 50174U 21125U   22088.91667824  .00040667  00000-0  25606-2 0  9995,2 50174  53.2184 236.9900 0001793  37.9646  71.7576 15.08810427 18611,6917.971,95.439,541.076,538.595,0.0
50174.0,STARLINK-3292,PAYLOAD,2022-03-30 12:00:00,15.08862172,0.0001658,53.2192,234.3703,44.6702,355.3131,-0.00099109,-0.00016036,0.0,0 STARLINK-3292,1 50174U 21125U   22089.50001157 -.00016036  00000-0 -99109-3 0  9997,2 50174  53.2192 234.3703 0001658  44.6702 355.3131 15.08862172 18703,6917.813,95.436,540.825,538.531,0.0
50174.0,STARLINK-3292,PAYLOAD,2022-03-30 14:00:01,15.08867762,0.0001733,53.219,233.9967,43.576,89.3705,-0.0026826,-0.00042761,0.0,0 STARLINK-3292,1 50174U 21125U   22089.58335648 -.00042761  00000-0 -26826-2 0  9999,2 50174  53.2190 233.9967 0001733  43.5760  89.3705 15.08867762  3585,6917.795999999999,95.436,540.859,538.462,0.0
50174.0,STARLINK-3292,PAYLOAD,2022-03-30 22:00:00,15.08826215,0.0001881,53.2187,232.5009,40.4245,104.0736,0.001236,0.0001943,0.0,0 STARLINK-3292,1 50174U 21125U   22089.91667824  .00019430  00000-0  12360-2 0  9993,2 50174  53.2187 232.5009 0001881  40.4245 104.0736 15.08826215  3634,6917.9230000000025,95.438,541.089,538.486,0.0
50174.0,STARLINK-3292,PAYLOAD,2022-03-31 14:00:01,15.08834618,0.0001894,53.2191,229.5079,47.3018,120.3813,-0.0008205,-0.00013321,0.0,0 STARLINK-3292,1 50174U 21125U   22090.58334491 -.00013321  00000-0 -82050-3 0  9998,2 50174  53.2191 229.5079 0001894  47.3018 120.3813 15.08834618 18864,6917.897,95.438,541.072,538.452,0.0
